[{"OBJECT_NAME":"OBJECT B","OBJECT_ID":"2025-284B","EPOCH":"2026-03-09T22:41:21.082560","MEAN_MOTION":13.97295842,"ECCENTRICITY":0.00117879,"INCLINATION":80.3988,"RA_OF_ASC_NODE":32.8503,"ARG_OF_PERICENTER":139.3103,"MEAN_ANOMALY":220.8941,"EPHEMERIS_TYPE":0,"CLASSIFICATION_TYPE":"U","NORAD_CAT_ID":66914,"ELEMENT_SET_NO":999,"REV_AT_EPOCH":1362,"BSTAR":0.00013516882,"MEAN_MOTION_DOT":1.99e-6,"MEAN_MOTION_DDOT":0},{"OBJECT_NAME":"FENGYUN 1C DEB","OBJECT_ID":"1999-025ARM","EPOCH":"2026-03-09T21:46:34.581216","MEAN_MOTION":14.19729994,"ECCENTRICITY":0.01177357,"INCLINATION":99.1518,"RA_OF_ASC_NODE":61.7775,"ARG_OF_PERICENTER":44.282,"MEAN_ANOMALY":14.2814,"EPHEMERIS_TYPE":0,"CLASSIFICATION_TYPE":"U","NORAD_CAT_ID":30703,"ELEMENT_SET_NO":999,"REV_AT_EPOCH":97777,"BSTAR":0.0015139002,"MEAN_MOTION_DOT":3.388e-5,"MEAN_MOTION_DDOT":0}]
